[{"OBJECT_NAME":"STARLINK-5299","OBJECT_ID":"2023-010J","EPOCH":"2026-03-09T22:43:24.526560","MEAN_MOTION":14.98331702,"ECCENTRICITY":0.00029393,"INCLINATION":70.0006,"RA_OF_ASC_NODE":43.8418,"ARG_OF_PERICENTER":268.4214,"MEAN_ANOMALY":91.6608,"EPHEMERIS_TYPE":0,"CLASSIFICATION_TYPE":"U","NORAD_CAT_ID":55277,"ELEMENT_SET_NO":999,"REV_AT_EPOCH":17282,"BSTAR":4.9927722e-5,"MEAN_MOTION_DOT":5.03e-6,"MEAN_MOTION_DDOT":0},{"OBJECT_NAME":"FENGYUN 1C DEB","OBJECT_ID":"1999-025GH","EPOCH":"2026-03-09T17:42:46.092672","MEAN_MOTION":14.3443525,"ECCENTRICITY":0.02859245,"INCLINATION":98.7067,"RA_OF_ASC_NODE":156.1493,"ARG_OF_PERICENTER":102.2038,"MEAN_ANOMALY":27.2455,"EPHEMERIS_TYPE":0,"CLASSIFICATION_TYPE":"U","NORAD_CAT_ID":29887,"ELEMENT_SET_NO":999,"REV_AT_EPOCH":99221,"BSTAR":0.00089189176,"MEAN_MOTION_DOT":3.936e-5,"MEAN_MOTION_DDOT":0}]
